[{"OBJECT_NAME":"CUPID","OBJECT_ID":"2021-088E","EPOCH":"2026-03-09T16:04:42.796128","MEAN_MOTION":15.24473777,"ECCENTRICITY":0.0013746,"INCLINATION":97.3985,"RA_OF_ASC_NODE":131.0756,"ARG_OF_PERICENTER":59.9938,"MEAN_ANOMALY":300.2662,"EPHEMERIS_TYPE":0,"CLASSIFICATION_TYPE":"U","NORAD_CAT_ID":49264,"ELEMENT_SET_NO":999,"REV_AT_EPOCH":24501,"BSTAR":0.00038662302,"MEAN_MOTION_DOT":9.454e-5,"MEAN_MOTION_DDOT":0},{"OBJECT_NAME":"STARLINK-31134","OBJECT_ID":"2023-203D","EPOCH":"2026-03-09T08:16:38.534016","MEAN_MOTION":15.27565704,"ECCENTRICITY":0.0001414,"INCLINATION":43.0027,"RA_OF_ASC_NODE":69.4663,"ARG_OF_PERICENTER":264.5032,"MEAN_ANOMALY":95.5658,"EPHEMERIS_TYPE":0,"CLASSIFICATION_TYPE":"U","NORAD_CAT_ID":58621,"ELEMENT_SET_NO":999,"REV_AT_EPOCH":12350,"BSTAR":0.0001021446,"MEAN_MOTION_DOT":2.548e-5,"MEAN_MOTION_DDOT":0}]
